H1 CPF 01  gfz 2022 07 06 00  6871 tandemx   
H2 1003001  6202 36605    2022 07 06 00 59 42 2022 07 11 00 00 42   120 1 1  0 0 0
H9
10 0 59767  49662.000000  0     566948.154   2949966.704  -6206167.291
10 0 59767  49782.000000  0    1006604.267   3631302.787  -5773905.752
10 0 59767  49902.000000  0    1440101.540   4241990.803  -5240746.288
10 0 59767  50022.000000  0    1858565.380   4771547.749  -4615917.569
10 0 59767  50142.000000  0    2253195.521   5211028.705  -3910265.033
10 0 59767  50262.000000  0    2615448.436   5553186.367  -3136071.436
10 0 59767  50382.000000  0    2937220.114   5792600.884  -2306850.417
10 0 59767  50502.000000  0    3211025.613   5925776.354  -1437113.933
10 0 59767  50622.000000  0    3430169.969   5951200.457   -542117.299
10 0 59767  50742.000000  0    3588905.544   5869364.506    362413.180
10 0 59767  50862.000000  0    3682571.853   5682742.948   1260563.388
10 0 59767  50982.000000  0    3707715.187   5395732.897   2136518.905
10 0 59767  51102.000000  0    3662183.963   5014556.387   2974851.795
10 0 59767  51222.000000  0    3545196.947   4547124.814   3760801.691
10 0 59767  51342.000000  0    3357383.601   4002869.451   4480539.833
10 0 59767  51462.000000  0    3100795.198   3392546.839   5121417.323
10 0 59767  51582.000000  0    2778882.839   2728017.992   5672187.528
10 0 59767  51702.000000  0    2396450.836   2022011.560   6123198.296
10 0 59767  51822.000000  0    1959583.720   1287875.615   6466556.782
10 0 59767  51942.000000  0    1475546.128    539321.353   6696261.457
10 0 59767  52062.000000  0     952659.447   -209833.203   6808300.155
10 0 59767  52182.000000  0     400157.979   -945917.200   6800717.066
10 0 59767  52302.000000  0    -171974.500  -1655656.934   6673645.195
10 0 59767  52422.000000  0    -753185.309  -2326415.043   6429303.684
10 0 59767  52542.000000  0   -1332546.966  -2946415.807   6071960.117
10 0 59767  52662.000000  0   -1898959.912  -3504952.205   5607859.767
10 0 59767  52782.000000  0   -2441364.201  -3992573.731   5045124.276
10 0 59767  52902.000000  0   -2948957.936  -4401252.106   4393617.077
10 0 59767  53022.000000  0   -3411416.189  -4724519.839   3664774.789
10 0 59767  53142.000000  0   -3819103.800  -4957578.323   2871408.027
10 0 59767  53262.000000  0   -4163277.575  -5097373.610   2027476.238
10 0 59767  53382.000000  0   -4436275.318  -5142638.184   1147839.296
10 0 59767  53502.000000  0   -4631685.794  -5093896.088    247989.993
10 0 59767  53622.000000  0   -4744495.166  -4953431.790   -656226.373
10 0 59767  53742.000000  0   -4771206.191  -4725223.358  -1548900.345
10 0 59767  53862.000000  0   -4709925.897  -4414840.638  -2414347.864
10 0 59767  53982.000000  0   -4560419.776  -4029311.313  -3237392.910
10 0 59767  54102.000000  0   -4324132.191  -3576960.131  -4003636.862
10 0 59767  54222.000000  0   -4004173.423  -3067226.075  -4699710.190
10 0 59767  54342.000000  0   -3605274.112  -2510461.376  -5313502.158
10 0 59767  54462.000000  0   -3133708.512  -1917717.918  -5834364.129
10 0 59767  54582.000000  0   -2597189.730  -1300526.083  -6253284.623
10 0 59767  54702.000000  0   -2004738.442   -670670.161  -6563034.545
10 0 59767  54822.000000  0   -1366527.670    -39965.174  -6758279.947
10 0 59767  54942.000000  0    -693708.767    579960.075  -6835662.547
10 0 59767  55062.000000  0       1779.652   1177871.671  -6793851.406
10 0 59767  55182.000000  0     707417.948   1743128.625  -6633563.002
10 0 59767  55302.000000  0    1410324.916   2265867.653  -6357552.739
10 0 59767  55422.000000  0    2097488.511   2737173.090  -5970572.692
10 0 59767  55542.000000  0    2756002.635   3149228.711  -5479298.196
10 0 59767  55662.000000  0    3373306.555   3495448.002  -4892222.719
10 0 59767  55782.000000  0    3937424.399   3770583.424  -4219523.482
10 0 59767  55902.000000  0    4437200.722   3970810.949  -3472895.559
10 0 59767  56022.000000  0    4862526.613   4093787.403  -2665356.251
10 0 59767  56142.000000  0    5204549.589   4138678.764  -1811022.453
10 0 59767  56262.000000  0    5455863.781   4106158.957   -924865.001
10 0 59767  56382.000000  0    5610674.362   3998377.842    -22443.486
10 0 59767  56502.000000  0    5664932.219   3818899.647    880371.957
10 0 59767  56622.000000  0    5616435.563   3572611.885   1767687.673
10 0 59767  56742.000000  0    5464893.828   3265606.530   2623875.210
10 0 59767  56862.000000  0    5211952.562   2905038.142   3433855.411
10 0 59767  56982.000000  0    4861178.623   2498961.139   4183371.632
10 0 59767  57102.000000  0    4418005.332   2056150.074   4859244.141
10 0 59767  57222.000000  0    3889643.959   1585910.730   5449602.180
10 0 59767  57342.000000  0    3284958.000   1097883.937   5944093.208
10 0 59767  57462.000000  0    2614305.413    601846.052   6334058.716
10 0 59767  57582.000000  0    1889355.663    107513.631   6612678.066
10 0 59767  57702.000000  0    1122884.058   -375645.376   6775082.846
10 0 59767  57822.000000  0     328543.939   -838592.617   6818438.345
10 0 59767  57942.000000  0    -479377.780  -1272887.945   6741988.940
10 0 59767  58062.000000  0   -1286217.248  -1670843.024   6547069.817
10 0 59767  58182.000000  0   -2077198.638  -2025657.414   6237083.615
10 0 59767  58302.000000  0   -2837702.339  -2331534.105   5817445.067
10 0 59767  58422.000000  0   -3553536.474  -2583776.042   5295495.252
10 0 59767  58542.000000  0   -4211207.257  -2778860.833   4680378.732
10 0 59767  58662.000000  0   -4798178.506  -2914490.562   3982887.271
10 0 59767  58782.000000  0   -5303116.783  -2989615.734   3215273.718
10 0 59767  58902.000000  0   -5716117.449  -3004433.711   2391039.032
10 0 59767  59022.000000  0   -6028907.433  -2960362.100   1524693.925
10 0 59767  59142.000000  0   -6235017.756  -2859986.520    631497.726
10 0 59767  59262.000000  0   -6329920.354  -2706982.283   -272817.744
10 0 59767  59382.000000  0   -6311127.697  -2506014.245  -1172333.834
10 0 59767  59502.000000  0   -6178249.963  -2262615.633  -2051235.568
10 0 59767  59622.000000  0   -5933008.470  -1983050.182  -2894097.184
10 0 59767  59742.000000  0   -5579207.890  -1674161.372  -3686157.562
10 0 59767  59862.000000  0   -5122667.365  -1343212.663  -4413580.419
10 0 59767  59982.000000  0   -4571113.562   -997722.828  -5063693.977
10 0 59767  60102.000000  0   -3934038.173   -645299.936  -5625206.568
10 0 59767  60222.000000  0   -3222523.740   -293478.373  -6088393.582
10 0 59767  60342.000000  0   -2449043.389     50437.660  -6445254.316
10 0 59767  60462.000000  0   -1627238.473    379520.670  -6689638.413
10 0 59767  60582.000000  0    -771677.689    687353.771  -6817340.813
10 0 59767  60702.000000  0     102397.022    968151.812  -6826165.624
10 0 59767  60822.000000  0     979334.668   1216866.453  -6715959.192
10 0 59767  60942.000000  0    1843348.555   1429274.252  -6488615.274
10 0 59767  61062.000000  0    2678795.127   1602047.993  -6148046.231
10 0 59767  61182.000000  0    3470452.910   1732808.398  -5700122.199
10 0 59767  61302.000000  0    4203796.457   1820155.742  -5152579.221
10 0 59767  61422.000000  0    4865263.987   1863681.941  -4514898.031
10 0 59767  61542.000000  0    5442513.602   1863962.116  -3798150.459
10 0 59767  61662.000000  0    5924660.899   1822524.982  -3014816.175
10 0 59767  61782.000000  0    6302494.565   1741802.887  -2178572.894
10 0 59767  61902.000000  0    6568664.781   1625062.665  -1304060.189
10 0 59767  62022.000000  0    6717837.230   1476317.557   -406621.724
10 0 59767  62142.000000  0    6746809.068   1300222.047    497969.277
10 0 59767  62262.000000  0    6654581.305   1101953.250   1393793.883
10 0 59767  62382.000000  0    6442390.471    887081.221   2265075.445
10 0 59767  62502.000000  0    6113693.082    661430.343   3096467.620
10 0 59767  62622.000000  0    5674105.371    430936.841   3873331.952
10 0 59767  62742.000000  0    5131299.043    201505.622   4582001.390
10 0 59767  62862.000000  0    4494858.560    -21128.680   5210022.017
10 0 59767  62982.000000  0    3776101.905   -231535.794   5746372.791
10 0 59767  63102.000000  0    2987868.641   -424713.483   6181654.678
10 0 59767  63222.000000  0    2144283.411   -596198.350   6508249.682
10 0 59767  63342.000000  0    1260498.254   -742163.042   6720448.741
10 0 59767  63462.000000  0     352416.593   -859497.755   6814546.851
10 0 59767  63582.000000  0    -563594.597   -945873.919   6788902.522
10 0 59767  63702.000000  0   -1470998.992   -999789.862   6643963.692
10 0 59767  63822.000000  0   -2353388.060  -1020596.906   6382259.742
10 0 59767  63942.000000  0   -3194775.958  -1008505.583   6008360.231
10 0 59767  64062.000000  0   -3979890.353   -964572.246   5528802.011
10 0 59767  64182.000000  0   -4694454.553   -890667.251   4951981.666
10 0 59767  64302.000000  0   -5325454.285   -789424.073   4288013.821
10 0 59767  64422.000000  0   -5861383.003   -664170.263   3548557.247
10 0 59767  64542.000000  0   -6292460.177   -518841.718   2746612.218
10 0 59767  64662.000000  0   -6610820.059   -357882.094   1896292.962
10 0 59767  64782.000000  0   -6810665.736   -186129.303   1012575.477
10 0 59767  64902.000000  0   -6888381.603     -8692.789    111026.666
10 0 59767  65022.000000  0   -6842602.144    169176.115   -792478.484
10 0 59767  65142.000000  0   -6674234.800    342217.528  -1682045.838
10 0 59767  65262.000000  0   -6386436.783    505295.769  -2542048.843
10 0 59767  65382.000000  0   -5984549.784    653528.740  -3357409.547
10 0 59767  65502.000000  0   -5475988.788    782410.928  -4113868.308
10 0 59767  65622.000000  0   -4870091.643    887926.599  -4798232.263
10 0 59767  65742.000000  0   -4177934.517    966650.272  -5398601.039
10 0 59767  65862.000000  0   -3412118.219   1015832.593  -5904565.311
10 0 59767  65982.000000  0   -2586530.592   1033469.483  -6307376.708
10 0 59767  66102.000000  0   -1716090.821   1018354.005  -6600087.158
99
